[{"OBJECT_NAME":"ONEWEB-0255","OBJECT_ID":"2021-060G","EPOCH":"2025-10-21T09:55:46.552800","MEAN_MOTION":13.16594736,"ECCENTRICITY":0.00020095,"INCLINATION":87.8971,"RA_OF_ASC_NODE":276.353,"ARG_OF_PERICENTER":93.9756,"MEAN_ANOMALY":266.1605,"EPHEMERIS_TYPE":0,"CLASSIFICATION_TYPE":"U","NORAD_CAT_ID":48973,"ELEMENT_SET_NO":999,"REV_AT_EPOCH":20824,"BSTAR":0.00013086629,"MEAN_MOTION_DOT":6.3e-7,"MEAN_MOTION_DDOT":0},{"OBJECT_NAME":"ONEWEB-0256","OBJECT_ID":"2021-060H","EPOCH":"2025-10-21T10:33:23.299200","MEAN_MOTION":13.16594856,"ECCENTRICITY":0.00017701,"INCLINATION":87.897,"RA_OF_ASC_NODE":276.3582,"ARG_OF_PERICENTER":84.3291,"MEAN_ANOMALY":275.8041,"EPHEMERIS_TYPE":0,"CLASSIFICATION_TYPE":"U","NORAD_CAT_ID":48974,"ELEMENT_SET_NO":999,"REV_AT_EPOCH":20821,"BSTAR":-8.5868649e-5,"MEAN_MOTION_DOT":-2.0e-7,"MEAN_MOTION_DDOT":0},{"OBJECT_NAME":"ONEWEB-0257","OBJECT_ID":"2021-060J","EPOCH":"2025-10-21T11:20:07.986624","MEAN_MOTION":13.16594382,"ECCENTRICITY":0.000186,"INCLINATION":87.8977,"RA_OF_ASC_NODE":276.3247,"ARG_OF_PERICENTER":93.282,"MEAN_ANOMALY":266.8524,"EPHEMERIS_TYPE":0,"CLASSIFICATION_TYPE":"U","NORAD_CAT_ID":48975,"ELEMENT_SET_NO":999,"REV_AT_EPOCH":20817,"BSTAR":0.00026421591,"MEAN_MOTION_DOT":1.14e-6,"MEAN_MOTION_DDOT":0},{"OBJECT_NAME":"ONEWEB-0258","OBJECT_ID":"2021-060K","EPOCH":"2025-10-21T20:29:35.808288","MEAN_MOTION":13.16594761,"ECCENTRICITY":0.0002003,"INCLINATION":87.8967,"RA_OF_ASC_NODE":276.2682,"ARG_OF_PERICENTER":86.4708,"MEAN_ANOMALY":273.6652,"EPHEMERIS_TYPE":0,"CLASSIFICATION_TYPE":"U","NORAD_CAT_ID":48976,"ELEMENT_SET_NO":999,"REV_AT_EPOCH":20823,"BSTAR":3.4807e-5,"MEAN_MOTION_DOT":2.6e-7,"MEAN_MOTION_DDOT":0},{"OBJECT_NAME":"ONEWEB-0259","OBJECT_ID":"2021-060L","EPOCH":"2025-10-21T20:20:28.874688","MEAN_MOTION":13.16594555,"ECCENTRICITY":0.0002009,"INCLINATION":87.8979,"RA_OF_ASC_NODE":276.2584,"ARG_OF_PERICENTER":92.303,"MEAN_ANOMALY":267.8331,"EPHEMERIS_TYPE":0,"CLASSIFICATION_TYPE":"U","NORAD_CAT_ID":48977,"ELEMENT_SET_NO":999,"REV_AT_EPOCH":20826,"BSTAR":-0.00011333,"MEAN_MOTION_DOT":-3.0e-7,"MEAN_MOTION_DDOT":0},{"OBJECT_NAME":"ONEWEB-0260","OBJECT_ID":"2021-060M","EPOCH":"2025-10-21T11:00:46.385280","MEAN_MOTION":13.1659299,"ECCENTRICITY":0.0001481,"INCLINATION":87.8969,"RA_OF_ASC_NODE":276.356,"ARG_OF_PERICENTER":85.1847,"MEAN_ANOMALY":274.9453,"EPHEMERIS_TYPE":0,"CLASSIFICATION_TYPE":"U","NORAD_CAT_ID":48978,"ELEMENT_SET_NO":999,"REV_AT_EPOCH":20819,"BSTAR":1.2725221e-5,"MEAN_MOTION_DOT":1.8e-7,"MEAN_MOTION_DDOT":0},{"OBJECT_NAME":"ONEWEB-0261","OBJECT_ID":"2021-060N","EPOCH":"2025-10-21T10:17:25.072224","MEAN_MOTION":13.1659247,"ECCENTRICITY":0.00018338,"INCLINATION":87.8971,"RA_OF_ASC_NODE":276.3638,"ARG_OF_PERICENTER":100.474,"MEAN_ANOMALY":259.6597,"EPHEMERIS_TYPE":0,"CLASSIFICATION_TYPE":"U","NORAD_CAT_ID":48979,"ELEMENT_SET_NO":999,"REV_AT_EPOCH":20824,"BSTAR":-9.106346e-5,"MEAN_MOTION_DOT":-2.2e-7,"MEAN_MOTION_DDOT":0},{"OBJECT_NAME":"ONEWEB-0262","OBJECT_ID":"2021-060P","EPOCH":"2025-10-21T11:38:22.437888","MEAN_MOTION":13.16594933,"ECCENTRICITY":0.0002196,"INCLINATION":87.8981,"RA_OF_ASC_NODE":276.3206,"ARG_OF_PERICENTER":91.6912,"MEAN_ANOMALY":268.4471,"EPHEMERIS_TYPE":0,"CLASSIFICATION_TYPE":"U","NORAD_CAT_ID":48980,"ELEMENT_SET_NO":999,"REV_AT_EPOCH":20821,"BSTAR":0.00029806,"MEAN_MOTION_DOT":1.27e-6,"MEAN_MOTION_DDOT":0},{"OBJECT_NAME":"ONEWEB-0263","OBJECT_ID":"2021-060Q","EPOCH":"2025-10-21T10:34:32.436480","MEAN_MOTION":13.16594363,"ECCENTRICITY":0.00019618,"INCLINATION":87.8972,"RA_OF_ASC_NODE":276.3479,"ARG_OF_PERICENTER":99.3472,"MEAN_ANOMALY":260.788,"EPHEMERIS_TYPE":0,"CLASSIFICATION_TYPE":"U","NORAD_CAT_ID":48981,"ELEMENT_SET_NO":999,"REV_AT_EPOCH":20817,"BSTAR":5.5959297e-5,"MEAN_MOTION_DOT":3.4e-7,"MEAN_MOTION_DDOT":0},{"OBJECT_NAME":"ONEWEB-0264","OBJECT_ID":"2021-060R","EPOCH":"2025-10-21T11:28:05.820960","MEAN_MOTION":13.1659699,"ECCENTRICITY":0.00016616,"INCLINATION":87.8968,"RA_OF_ASC_NODE":276.3451,"ARG_OF_PERICENTER":92.607,"MEAN_ANOMALY":267.5251,"EPHEMERIS_TYPE":0,"CLASSIFICATION_TYPE":"U","NORAD_CAT_ID":48982,"ELEMENT_SET_NO":999,"REV_AT_EPOCH":20818,"BSTAR":0.00026836743,"MEAN_MOTION_DOT":1.15e-6,"MEAN_MOTION_DDOT":0},{"OBJECT_NAME":"ONEWEB-0266","OBJECT_ID":"2021-060T","EPOCH":"2025-10-21T10:09:27.918720","MEAN_MOTION":13.16594951,"ECCENTRICITY":0.00020554,"INCLINATION":87.8983,"RA_OF_ASC_NODE":276.3366,"ARG_OF_PERICENTER":85.3175,"MEAN_ANOMALY":274.8191,"EPHEMERIS_TYPE":0,"CLASSIFICATION_TYPE":"U","NORAD_CAT_ID":48984,"ELEMENT_SET_NO":999,"REV_AT_EPOCH":20816,"BSTAR":6.4869569e-5,"MEAN_MOTION_DOT":3.8e-7,"MEAN_MOTION_DDOT":0},{"OBJECT_NAME":"ONEWEB-0267","OBJECT_ID":"2021-060U","EPOCH":"2025-10-21T10:25:23.677248","MEAN_MOTION":13.16593692,"ECCENTRICITY":0.00018244,"INCLINATION":87.8976,"RA_OF_ASC_NODE":276.3357,"ARG_OF_PERICENTER":94.7891,"MEAN_ANOMALY":265.3448,"EPHEMERIS_TYPE":0,"CLASSIFICATION_TYPE":"U","NORAD_CAT_ID":48985,"ELEMENT_SET_NO":999,"REV_AT_EPOCH":20817,"BSTAR":-0.00058206936,"MEAN_MOTION_DOT":-2.1e-6,"MEAN_MOTION_DDOT":0},{"OBJECT_NAME":"ONEWEB-0268","OBJECT_ID":"2021-060V","EPOCH":"2025-10-21T11:29:15.578592","MEAN_MOTION":13.1659733,"ECCENTRICITY":0.00017936,"INCLINATION":87.8978,"RA_OF_ASC_NODE":276.3338,"ARG_OF_PERICENTER":87.5825,"MEAN_ANOMALY":272.5511,"EPHEMERIS_TYPE":0,"CLASSIFICATION_TYPE":"U","NORAD_CAT_ID":48986,"ELEMENT_SET_NO":999,"REV_AT_EPOCH":20844,"BSTAR":7.0291557e-5,"MEAN_MOTION_DOT":4.0e-7,"MEAN_MOTION_DDOT":0},{"OBJECT_NAME":"ONEWEB-0269","OBJECT_ID":"2021-060W","EPOCH":"2025-10-21T18:19:36.925248","MEAN_MOTION":13.16597187,"ECCENTRICITY":0.0001771,"INCLINATION":87.897,"RA_OF_ASC_NODE":276.3039,"ARG_OF_PERICENTER":81.9012,"MEAN_ANOMALY":278.232,"EPHEMERIS_TYPE":0,"CLASSIFICATION_TYPE":"U","NORAD_CAT_ID":48987,"ELEMENT_SET_NO":999,"REV_AT_EPOCH":20825,"BSTAR":-2.3051e-5,"MEAN_MOTION_DOT":4.0e-8,"MEAN_MOTION_DDOT":0},{"OBJECT_NAME":"ONEWEB-0270","OBJECT_ID":"2021-060X","EPOCH":"2025-10-21T20:34:07.538880","MEAN_MOTION":13.16593719,"ECCENTRICITY":0.0002149,"INCLINATION":87.8975,"RA_OF_ASC_NODE":276.2599,"ARG_OF_PERICENTER":98.1928,"MEAN_ANOMALY":261.9446,"EPHEMERIS_TYPE":0,"CLASSIFICATION_TYPE":"U","NORAD_CAT_ID":48988,"ELEMENT_SET_NO":999,"REV_AT_EPOCH":20830,"BSTAR":-0.0011037,"MEAN_MOTION_DOT":-4.09e-6,"MEAN_MOTION_DDOT":0},{"OBJECT_NAME":"ONEWEB-0271","OBJECT_ID":"2021-060Y","EPOCH":"2025-10-21T18:26:28.417344","MEAN_MOTION":13.1659471,"ECCENTRICITY":0.0001857,"INCLINATION":87.899,"RA_OF_ASC_NODE":276.2623,"ARG_OF_PERICENTER":95.9843,"MEAN_ANOMALY":264.15,"EPHEMERIS_TYPE":0,"CLASSIFICATION_TYPE":"U","NORAD_CAT_ID":48989,"ELEMENT_SET_NO":999,"REV_AT_EPOCH":20829,"BSTAR":0.0001731,"MEAN_MOTION_DOT":7.9e-7,"MEAN_MOTION_DDOT":0},{"OBJECT_NAME":"ONEWEB-0272","OBJECT_ID":"2021-060Z","EPOCH":"2025-10-21T11:40:39.011232","MEAN_MOTION":13.16595275,"ECCENTRICITY":0.0001704,"INCLINATION":87.8972,"RA_OF_ASC_NODE":276.3429,"ARG_OF_PERICENTER":94.1412,"MEAN_ANOMALY":265.9913,"EPHEMERIS_TYPE":0,"CLASSIFICATION_TYPE":"U","NORAD_CAT_ID":48990,"ELEMENT_SET_NO":999,"REV_AT_EPOCH":20820,"BSTAR":0.00030588,"MEAN_MOTION_DOT":1.3e-6,"MEAN_MOTION_DDOT":0}]
