ONEWEB-0255             
1 48973U 21060G   25294.41373325  .00000063  00000+0  13087-3 0  9990
2 48973  87.8971 276.3530 0002009  93.9756 266.1605 13.16594736208246
ONEWEB-0256             
1 48974U 21060H   25294.43985300 -.00000020  00000+0 -85869-4 0  9998
2 48974  87.8970 276.3582 0001770  84.3291 275.8041 13.16594856208216
ONEWEB-0257             
1 48975U 21060J   25294.47231466  .00000114  00000+0  26422-3 0  9991
2 48975  87.8977 276.3247 0001860  93.2820 266.8524 13.16594382208174
ONEWEB-0258             
1 48976U 21060K   25294.85388667  .00000026  00000+0  34807-4 0  9999
2 48976  87.8967 276.2682 0002003  86.4708 273.6652 13.16594761208231
ONEWEB-0259             
1 48977U 21060L   25294.84755642 -.00000030  00000+0 -11333-3 0  9995
2 48977  87.8979 276.2584 0002009  92.3030 267.8331 13.16594555208269
ONEWEB-0260             
1 48978U 21060M   25294.45887020  .00000018  00000+0  12725-4 0  9990
2 48978  87.8969 276.3560 0001481  85.1847 274.9453 13.16592990208190
ONEWEB-0261             
1 48979U 21060N   25294.42876241 -.00000022  00000+0 -91063-4 0  9990
2 48979  87.8971 276.3638 0001833 100.4740 259.6597 13.16592470208242
ONEWEB-0262             
1 48980U 21060P   25294.48498192  .00000127  00000+0  29806-3 0  9992
2 48980  87.8981 276.3206 0002196  91.6912 268.4471 13.16594933208213
ONEWEB-0263             
1 48981U 21060Q   25294.44065320  .00000034  00000+0  55959-4 0  9998
2 48981  87.8972 276.3479 0001961  99.3472 260.7880 13.16594363208172
ONEWEB-0264             
1 48982U 21060R   25294.47784515  .00000115  00000+0  26837-3 0  9998
2 48982  87.8968 276.3451 0001661  92.6070 267.5251 13.16596990208181
ONEWEB-0266             
1 48984U 21060T   25294.42323980  .00000038  00000+0  64870-4 0  9994
2 48984  87.8983 276.3366 0002055  85.3175 274.8191 13.16594951208165
ONEWEB-0267             
1 48985U 21060U   25294.43430182 -.00000210  00000+0 -58207-3 0  9999
2 48985  87.8976 276.3357 0001824  94.7891 265.3448 13.16593692208172
ONEWEB-0268             
1 48986U 21060V   25294.47865253  .00000040  00000+0  70292-4 0  9993
2 48986  87.8978 276.3338 0001793  87.5825 272.5511 13.16597330208440
ONEWEB-0269             
1 48987U 21060W   25294.76362182  .00000004  00000+0 -23051-4 0  9991
2 48987  87.8970 276.3039 0001771  81.9012 278.2320 13.16597187208253
ONEWEB-0270             
1 48988U 21060X   25294.85703170 -.00000409  00000+0 -11037-2 0  9997
2 48988  87.8975 276.2599 0002149  98.1928 261.9446 13.16593719208306
ONEWEB-0271             
1 48989U 21060Y   25294.76838446  .00000079  00000+0  17310-3 0  9995
2 48989  87.8990 276.2623 0001857  95.9843 264.1500 13.16594710208294
ONEWEB-0272             
1 48990U 21060Z   25294.48656263  .00000130  00000+0  30588-3 0  9991
2 48990  87.8972 276.3429 0001704  94.1412 265.9913 13.16595275208200
